CCSDS_OMM_VERS = 2.0
CREATION_DATE  = 
ORIGINATOR     = 

OBJECT_NAME    = ATLAS CENTAUR 2
OBJECT_ID      = 1963-047A
CENTER_NAME    = EARTH
REF_FRAME      = TEME
TIME_SYSTEM    = UTC
MEAN_ELEMENT_THEORY = SGP/SGP4

EPOCH          = 2026-04-02T13:56:26.348064
MEAN_MOTION    = 14.12172565
ECCENTRICITY   = .05472626
INCLINATION    = 30.3579
RA_OF_ASC_NODE = 62.1151
ARG_OF_PERICENTER = 290.8544
MEAN_ANOMALY   = 63.4303

EPHEMERIS_TYPE = 0
CLASSIFICATION_TYPE = U
NORAD_CAT_ID   = 694
ELEMENT_SET_NO = 999
REV_AT_EPOCH   = 13500
BSTAR          = .39319631E-3
MEAN_MOTION_DOT = .3323E-4
MEAN_MOTION_DDOT = 0

CCSDS_OMM_VERS = 2.0
CREATION_DATE  = 
ORIGINATOR     = 

OBJECT_NAME    = THOR AGENA D R/B
OBJECT_ID      = 1964-002A
CENTER_NAME    = EARTH
REF_FRAME      = TEME
TIME_SYSTEM    = UTC
MEAN_ELEMENT_THEORY = SGP/SGP4

EPOCH          = 2026-04-02T20:57:08.654976
MEAN_MOTION    = 14.34033598
ECCENTRICITY   = .0032822
INCLINATION    = 99.1210
RA_OF_ASC_NODE = 107.5280
ARG_OF_PERICENTER = 186.3586
MEAN_ANOMALY   = 173.7185

EPHEMERIS_TYPE = 0
CLASSIFICATION_TYPE = U
NORAD_CAT_ID   = 733
ELEMENT_SET_NO = 999
REV_AT_EPOCH   = 24176
BSTAR          = .12664E-3
MEAN_MOTION_DOT = .307E-5
MEAN_MOTION_DDOT = 0

CCSDS_OMM_VERS = 2.0
CREATION_DATE  = 
ORIGINATOR     = 

OBJECT_NAME    = SL-3 R/B
OBJECT_ID      = 1964-053B
CENTER_NAME    = EARTH
REF_FRAME      = TEME
TIME_SYSTEM    = UTC
MEAN_ELEMENT_THEORY = SGP/SGP4

EPOCH          = 2026-04-02T20:22:34.864032
MEAN_MOTION    = 14.61386030
ECCENTRICITY   = .008057
INCLINATION    = 65.0756
RA_OF_ASC_NODE = 260.4035
ARG_OF_PERICENTER = 284.6183
MEAN_ANOMALY   = 74.5993

EPHEMERIS_TYPE = 0
CLASSIFICATION_TYPE = U
NORAD_CAT_ID   = 877
ELEMENT_SET_NO = 999
REV_AT_EPOCH   = 27032
BSTAR          = .10145E-3
MEAN_MOTION_DOT = .4E-5
MEAN_MOTION_DDOT = 0

CCSDS_OMM_VERS = 2.0
CREATION_DATE  = 
ORIGINATOR     = 

OBJECT_NAME    = SL-8 R/B
OBJECT_ID      = 1967-045B
CENTER_NAME    = EARTH
REF_FRAME      = TEME
TIME_SYSTEM    = UTC
MEAN_ELEMENT_THEORY = SGP/SGP4

EPOCH          = 2026-04-02T20:45:17.799840
MEAN_MOTION    = 14.45641967
ECCENTRICITY   = .0065004
INCLINATION    = 74.0104
RA_OF_ASC_NODE = 302.9411
ARG_OF_PERICENTER = 303.8934
MEAN_ANOMALY   = 55.6051

EPHEMERIS_TYPE = 0
CLASSIFICATION_TYPE = U
NORAD_CAT_ID   = 2802
ELEMENT_SET_NO = 999
REV_AT_EPOCH   = 9251
BSTAR          = .12506E-3
MEAN_MOTION_DOT = .425E-5
MEAN_MOTION_DDOT = 0

CCSDS_OMM_VERS = 2.0
CREATION_DATE  = 
ORIGINATOR     = 

OBJECT_NAME    = SL-8 R/B
OBJECT_ID      = 1968-040B
CENTER_NAME    = EARTH
REF_FRAME      = TEME
TIME_SYSTEM    = UTC
MEAN_ELEMENT_THEORY = SGP/SGP4

EPOCH          = 2026-04-02T20:47:27.460320
MEAN_MOTION    = 15.03431381
ECCENTRICITY   = .0023354
INCLINATION    = 74.0288
RA_OF_ASC_NODE = 264.2830
ARG_OF_PERICENTER = 78.2368
MEAN_ANOMALY   = 282.1439

EPHEMERIS_TYPE = 0
CLASSIFICATION_TYPE = U
NORAD_CAT_ID   = 3230
ELEMENT_SET_NO = 999
REV_AT_EPOCH   = 9364
BSTAR          = .43545E-3
MEAN_MOTION_DOT = .5925E-4
MEAN_MOTION_DDOT = 0

CCSDS_OMM_VERS = 2.0
CREATION_DATE  = 
ORIGINATOR     = 

OBJECT_NAME    = OAO 2
OBJECT_ID      = 1968-110A
CENTER_NAME    = EARTH
REF_FRAME      = TEME
TIME_SYSTEM    = UTC
MEAN_ELEMENT_THEORY = SGP/SGP4

EPOCH          = 2026-04-02T18:58:31.645920
MEAN_MOTION    = 14.47321708
ECCENTRICITY   = .000531
INCLINATION    = 34.9923
RA_OF_ASC_NODE = 130.6571
ARG_OF_PERICENTER = 25.4659
MEAN_ANOMALY   = 334.6293

EPHEMERIS_TYPE = 0
CLASSIFICATION_TYPE = U
NORAD_CAT_ID   = 3597
ELEMENT_SET_NO = 999
REV_AT_EPOCH   = 2259
BSTAR          = .85585E-4
MEAN_MOTION_DOT = .299E-5
MEAN_MOTION_DDOT = 0

CCSDS_OMM_VERS = 2.0
CREATION_DATE  = 
ORIGINATOR     = 

OBJECT_NAME    = ISIS 1
OBJECT_ID      = 1969-009A
CENTER_NAME    = EARTH
REF_FRAME      = TEME
TIME_SYSTEM    = UTC
MEAN_ELEMENT_THEORY = SGP/SGP4

EPOCH          = 2026-04-02T12:37:54.812640
MEAN_MOTION    = 11.30420283
ECCENTRICITY   = .17078113
INCLINATION    = 88.4496
RA_OF_ASC_NODE = 152.7063
ARG_OF_PERICENTER = 41.0778
MEAN_ANOMALY   = 330.6967

EPHEMERIS_TYPE = 0
CLASSIFICATION_TYPE = U
NORAD_CAT_ID   = 3669
ELEMENT_SET_NO = 999
REV_AT_EPOCH   = 35122
BSTAR          = .10859409E-3
MEAN_MOTION_DOT = .17E-5
MEAN_MOTION_DDOT = 0

CCSDS_OMM_VERS = 2.0
CREATION_DATE  = 
ORIGINATOR     = 

OBJECT_NAME    = SERT 2
OBJECT_ID      = 1970-009A
CENTER_NAME    = EARTH
REF_FRAME      = TEME
TIME_SYSTEM    = UTC
MEAN_ELEMENT_THEORY = SGP/SGP4

EPOCH          = 2026-04-02T13:54:45.025920
MEAN_MOTION    = 13.58732104
ECCENTRICITY   = .00057314
INCLINATION    = 99.2792
RA_OF_ASC_NODE = 34.3701
ARG_OF_PERICENTER = 101.1851
MEAN_ANOMALY   = 72.0799

EPHEMERIS_TYPE = 0
CLASSIFICATION_TYPE = U
NORAD_CAT_ID   = 4327
ELEMENT_SET_NO = 999
REV_AT_EPOCH   = 78313
BSTAR          = .7340565E-4
MEAN_MOTION_DOT = .12E-6
MEAN_MOTION_DDOT = 0

CCSDS_OMM_VERS = 2.0
CREATION_DATE  = 
ORIGINATOR     = 

OBJECT_NAME    = SL-3 R/B
OBJECT_ID      = 1971-028B
CENTER_NAME    = EARTH
REF_FRAME      = TEME
TIME_SYSTEM    = UTC
MEAN_ELEMENT_THEORY = SGP/SGP4

EPOCH          = 2026-04-02T19:18:23.452704
MEAN_MOTION    = 15.63367832
ECCENTRICITY   = .0015126
INCLINATION    = 81.2384
RA_OF_ASC_NODE = 22.2007
ARG_OF_PERICENTER = 187.1674
MEAN_ANOMALY   = 172.9366

EPHEMERIS_TYPE = 0
CLASSIFICATION_TYPE = U
NORAD_CAT_ID   = 5118
ELEMENT_SET_NO = 999
REV_AT_EPOCH   = 99243
BSTAR          = .68945E-3
MEAN_MOTION_DOT = .64159E-3
MEAN_MOTION_DDOT = 0

CCSDS_OMM_VERS = 2.0
CREATION_DATE  = 
ORIGINATOR     = 

OBJECT_NAME    = ASTEX 1
OBJECT_ID      = 1971-089A
CENTER_NAME    = EARTH
REF_FRAME      = TEME
TIME_SYSTEM    = UTC
MEAN_ELEMENT_THEORY = SGP/SGP4

EPOCH          = 2026-04-02T14:49:50.202624
MEAN_MOTION    = 14.50794388
ECCENTRICITY   = .00157944
INCLINATION    = 92.7084
RA_OF_ASC_NODE = 159.4926
ARG_OF_PERICENTER = 12.6420
MEAN_ANOMALY   = 347.5179

EPHEMERIS_TYPE = 0
CLASSIFICATION_TYPE = U
NORAD_CAT_ID   = 5560
ELEMENT_SET_NO = 999
REV_AT_EPOCH   = 86577
BSTAR          = .14833063E-3
MEAN_MOTION_DOT = .584E-5
MEAN_MOTION_DDOT = 0

CCSDS_OMM_VERS = 2.0
CREATION_DATE  = 
ORIGINATOR     = 

OBJECT_NAME    = SL-8 R/B
OBJECT_ID      = 1971-119B
CENTER_NAME    = EARTH
REF_FRAME      = TEME
TIME_SYSTEM    = UTC
MEAN_ELEMENT_THEORY = SGP/SGP4

EPOCH          = 2026-04-02T19:07:00.325920
MEAN_MOTION    = 14.38311824
ECCENTRICITY   = .0546131
INCLINATION    = 73.8844
RA_OF_ASC_NODE = 130.6440
ARG_OF_PERICENTER = 92.1664
MEAN_ANOMALY   = 274.2098

EPHEMERIS_TYPE = 0
CLASSIFICATION_TYPE = U
NORAD_CAT_ID   = 5730
ELEMENT_SET_NO = 999
REV_AT_EPOCH   = 65895
BSTAR          = .46102E-3
MEAN_MOTION_DOT = .8816E-4
MEAN_MOTION_DDOT = 0

CCSDS_OMM_VERS = 2.0
CREATION_DATE  = 
ORIGINATOR     = 

OBJECT_NAME    = OAO 3 (COPERNICUS)
OBJECT_ID      = 1972-065A
CENTER_NAME    = EARTH
REF_FRAME      = TEME
TIME_SYSTEM    = UTC
MEAN_ELEMENT_THEORY = SGP/SGP4

EPOCH          = 2026-04-02T10:59:06.091296
MEAN_MOTION    = 14.60017606
ECCENTRICITY   = .00067622
INCLINATION    = 35.0046
RA_OF_ASC_NODE = 161.8953
ARG_OF_PERICENTER = 350.0235
MEAN_ANOMALY   = 26.9623

EPHEMERIS_TYPE = 0
CLASSIFICATION_TYPE = U
NORAD_CAT_ID   = 6153
ELEMENT_SET_NO = 999
REV_AT_EPOCH   = 84967
BSTAR          = .10255478E-3
MEAN_MOTION_DOT = .479E-5
MEAN_MOTION_DDOT = 0

